BEIDOU 3 (C01)          
1 36287U 10001A   22263.88751345 -.00000284  00000+0  00000+0 0  9997
2 36287   1.6764  47.1278 0000495  10.1474  42.4695  1.00271717 46473
BEIDOU 5 (C06)          
1 36828U 10036A   22263.83769836 -.00000161  00000+0  00000+0 0  9999
2 36828  54.1992 175.3575 0030227 187.8507  46.0736  1.00271127 44535
BEIDOU 6 (C04)          
1 37210U 10057A   22264.51577193 -.00000117  00000+0  00000+0 0  9998
2 37210   0.7326  37.8026 0007132 150.0913 158.1613  1.00270612 43596
BEIDOU 7 (C07)          
1 37256U 10068A   22263.54945969 -.00000154  00000+0  00000+0 0  9993
2 37256  50.0428 288.5075 0024100 204.2201 172.6691  1.00277079 43100
BEIDOU 8 (C08)          
1 37384U 11013A   22264.27288205 -.00000148  00000+0  00000+0 0  9993
2 37384  60.4328  53.3117 0024149 177.7356 335.5144  1.00282047 41987
BEIDOU 9 (C09)          
1 37763U 11038A   22263.90567670 -.00000111  00000+0  00000+0 0  9996
2 37763  54.4807 177.8593 0098916 227.8821  14.4281  1.00261235 40957
BEIDOU 10 (C10)         
1 37948U 11073A   22263.54245138 -.00000109  00000+0  00000+0 0  9999
2 37948  50.1599 288.1522 0086880 219.6189 143.0156  1.00272545 39712
BEIDOU 11 (C05)         
1 38091U 12008A   22263.94297286  .00000051  00000+0  00000+0 0  9998
2 38091   1.7728  69.4996 0011226 342.7356 345.8046  1.00275615 38786
BEIDOU 12 (C11)         
1 38250U 12018A   22263.79954091 -.00000103  00000+0  00000+0 0  9992
2 38250  56.6651 350.4119 0022987 249.8800 166.1498  1.86234313 70868
BEIDOU 13 (C12)         
1 38251U 12018B   22263.19314392 -.00000106  00000+0  00000+0 0  9994
2 38251  56.5811 349.7499 0013937 249.3139 164.3099  1.86234059 70856
BEIDOU 15 (C14)         
1 38775U 12050B   22263.68875308  .00000024  00000+0  00000+0 0  9992
2 38775  55.4549 108.4799 0012038 333.4163 248.4023  1.86231346 68235
BEIDOU 16 (C02)         
1 38953U 12059A   22264.51091125 -.00000182  00000+0  00000+0 0  9995
2 38953   1.1571  81.3116 0023853 295.3321 251.8302  1.00272219 36364
BEIDOU 17 (C31)         
1 40549U 15019A   22264.52778228 -.00000144  00000+0  00000+0 0  9993
2 40549  51.7194 311.6414 0038748 197.9126 136.7015  1.00276547 27392
BEIDOU 18 (C57)         
1 40748U 15037A   22263.73134839 -.00000103  00000+0  00000+0 0  9995
2 40748  55.8305 348.5411 0001424  45.4767 278.3118  1.86233372 48682
BEIDOU 19 (C58)         
1 40749U 15037B   22263.78649976 -.00000102  00000+0  00000+0 0  9993
2 40749  55.8337 348.5291 0003064 299.8637 195.0971  1.86232983 48686
BEIDOU 20 (C18)         
1 40938U 15053A   22263.94054612 -.00000086  00000+0  00000+0 0  9997
2 40938  51.3547 274.7724 0046345 199.8123 320.3449  1.00271555 25658
BEIDOU IGSO-6 (C13)     
1 41434U 16021A   22263.88035620 -.00000120  00000+0  00000+0 0  9995
2 41434  58.2412  51.8473 0045185 215.0145 144.7573  1.00264470 23795
BEIDOU-2 G7 (C03)       
1 41586U 16037A   22264.53427038 -.00000358  00000+0  00000+0 0  9994
2 41586   1.5833  67.9433 0007662 353.6364 241.7214  1.00272118 23096
BEIDOU-3 M1 (C19)       
1 43001U 17069A   22264.50525541  .00000036  00000+0  00000+0 0  9991
2 43001  55.6087 108.4654 0007939 296.9236 268.6792  1.86231717 33185
BEIDOU-3 M2 (C20)       
1 43002U 17069B   22263.34965322  .00000020  00000+0  00000+0 0  9991
2 43002  55.6068 108.5396 0006550 326.4803 227.2307  1.86231291 33153
BEIDOU-3 M3 (C27)       
1 43107U 18003A   22263.45495264 -.00000106  00000+0  00000+0 0  9997
2 43107  55.2822 349.4253 0003995  72.1709 358.4073  1.86232485 31927
BEIDOU-3 M4 (C28)       
1 43108U 18003B   22263.80429677 -.00000104  00000+0  00000+0 0  9990
2 43108  55.2759 349.4022 0003502 235.3037 112.8445  1.86230899 31924
BEIDOU-3 M5 (C21)       
1 43207U 18018A   22263.19261770  .00000018  00000+0  00000+0 0  9999
2 43207  55.5666 108.6198 0004744   4.7250 355.3648  1.86231658 31302
BEIDOU-3 M6 (C22)       
1 43208U 18018B   22263.25930178  .00000019  00000+0  00000+0 0  9993
2 43208  55.5663 108.6230 0006116 313.5096  46.5275  1.86231582 31302
BEIDOU-3 M7 (C29)       
1 43245U 18029A   22264.52296977 -.00000097  00000+0  00000+0 0  9996
2 43245  55.1924 347.1506 0001094 191.5591 145.5774  1.86232688 30478
BEIDOU-3 M8 (C30)       
1 43246U 18029B   22263.82632644 -.00000101  00000+0  10000-3 0  9995
2 43246  55.1893 347.2040 0002748   0.9912 275.6910  1.86232906 30453
BEIDOU IGSO-7 (C16)     
1 43539U 18057A   22263.90681507 -.00000168  00000+0  00000+0 0  9990
2 43539  55.0902 174.8869 0052514 228.2601  37.3113  1.00281535 15467
BEIDOU-3 M9 (C23)       
1 43581U 18062A   22264.46679156  .00000009  00000+0  00000+0 0  9995
2 43581  54.2538 228.7975 0005967 276.4131 280.9422  1.86231917 28219
BEIDOU-3 M10 (C24)      
1 43582U 18062B   22263.77679340  .00000013  00000+0  00000+0 0  9999
2 43582  54.2528 228.8104 0005245 340.2844 206.3489  1.86232354 28204
BEIDOU-3 M11 (C25)      
1 43602U 18067A   22263.72046635  .00000012  00000+0  00000+0 0  9996
2 43602  54.3367 227.4361 0006939   1.7373 188.3233  1.86231518 27695
BEIDOU-3 M12 (C26)      
1 43603U 18067B   22263.84499564  .00000011  00000+0  00000+0 0  9992
2 43603  54.3335 227.3982 0004257 344.3267 199.5836  1.86231492 27715
BEIDOU-3 M13 (C32)      
1 43622U 18072A   22264.32398229  .00000033  00000+0  00000+0 0  9993
2 43622  55.5340 108.1336 0004699 292.4217 241.6683  1.86231785 27233
BEIDOU-3 M14 (C33)      
1 43623U 18072B   22263.14235369  .00000017  00000+0  00000+0 0  9990
2 43623  55.5358 108.1654 0003228 336.2566 215.8465  1.86231791 27213
BEIDOU-3 M15 (C34)      
1 43647U 18078A   22263.50577859 -.00000103  00000+0  10000-3 0  9997
2 43647  55.0875 347.3352 0005067   2.5823 328.8319  1.86233119 26726
BEIDOU-3 M16 (C35)      
1 43648U 18078B   22263.73073244 -.00000102  00000+0  00000+0 0  9996
2 43648  55.0838 347.3345 0003108  24.1833   5.6546  1.86232250 26753
BEIDOU-3 G1 (C59)       
1 43683U 18085A   22264.17445354 -.00000283  00000+0  00000+0 0  9997
2 43683   0.9972 151.4152 0004334  46.5561   4.9624  1.00272617 14368
BEIDOU-3 M17 (C36)      
1 43706U 18093A   22264.37375335  .00000009  00000+0  00000+0 0  9990
2 43706  54.3358 228.6934 0010718 277.7530  82.0990  1.86232079 26107
BEIDOU-3 M18 (C37)      
1 43707U 18093B   22263.99342654  .00000012  00000+0  00000+0 0  9990
2 43707  54.3366 228.6968 0009391 298.1123 258.0514  1.86232227 26106
BEIDOU-3 IGSO-1 (C38)   
1 44204U 19023A   22263.81166868 -.00000184  00000+0  00000+0 0  9990
2 44204  56.7017  51.9490 0023494 188.5238 171.0311  1.00280953 12664
BEIDOU-2 G8             
1 44231U 19027A   22264.56026079 -.00000251  00000+0  00000+0 0  9991
2 44231   1.0884  79.0864 0006159 117.6782 149.8668  1.00274992 12384
BEIDOU-3 IGSO-2 (C39)   
1 44337U 19035A   22263.96725557 -.00000169  00000+0  00000+0 0  9995
2 44337  55.1280 170.8749 0025735 192.3765 104.5791  1.00275282 12002
BEIDOU-3 M23 (C45)      
1 44542U 19061A   22263.77305595  .00000014  00000+0  00000+0 0  9995
2 44542  54.5622 228.8748 0008860 331.5874  28.3401  1.86231593 20364
BEIDOU-3 M24 (C46)      
1 44543U 19061B   22263.74685627  .00000014  00000+0  00000+0 0  9990
2 44543  54.5605 228.8447 0006386 314.9590 298.8340  1.86231957 20352
BEIDOU-3 IGSO-3         
1 44709U 19073A   22263.52397844 -.00000134  00000+0  10000-3 0  9993
2 44709  57.1098 295.3966 0027554 182.2522 190.4026  1.00279999 10752
BEIDOU-3 M21            
1 44793U 19078A   22263.60932911 -.00000103  00000+0  10000-3 0  9996
2 44793  54.9359 347.3421 0005061  15.6603 338.9231  1.86232278 19212
BEIDOU-3 M22            
1 44794U 19078B   22263.68672788 -.00000103  00000+0  00000+0 0  9993
2 44794  54.9102 347.3298 0002879   6.8703 311.4341  1.86232768 19210
BEIDOU-3 M19            
1 44864U 19090A   22263.99354944  .00000029  00000+0  00000+0 0  9996
2 44864  55.4686 108.3506 0015168 270.9978  87.4119  1.86231945 18804
BEIDOU-3 M20            
1 44865U 19090B   22263.77060063  .00000026  00000+0  00000+0 0  9996
2 44865  55.4707 108.3900 0013344 286.7511  12.0330  1.86231891 18774
BEIDOU-3 G2             
1 45344U 20017A   22264.51091125 -.00000145  00000+0  00000+0 0  9999
2 45344   2.0179 356.9035 0003960 157.8274 109.6288  1.00272364  9585
BEIDOU-3 G3             
1 45807U 20040A   22263.92176951 -.00000360  00000+0  00000+0 0  9993
2 45807   1.2335 306.3534 0007997 331.8616 163.9074  1.00267668  8389
